SUPERVIEW NEO-1 04      
1 63126U 25040B   26065.81115277  .00009111  00000+0  40583-3 0  9994
2 63126  97.3404 182.7609 0001810 125.6161 234.5244 15.21660643 56629
KUIPER-00055            
1 64515U 25134R   26068.90209541  .00019176  00000+0  87667-3 0  9998
2 64515  51.8904 178.7702 0001526  14.9809 345.1216 15.20562207 40856
