[{"OBJECT_NAME":"SUPERVIEW NEO-1 04","OBJECT_ID":"2025-040B","EPOCH":"2026-03-06T19:28:03.599328","MEAN_MOTION":15.21660643,"ECCENTRICITY":0.00018105,"INCLINATION":97.3404,"RA_OF_ASC_NODE":182.7609,"ARG_OF_PERICENTER":125.6161,"MEAN_ANOMALY":234.5244,"EPHEMERIS_TYPE":0,"CLASSIFICATION_TYPE":"U","NORAD_CAT_ID":63126,"ELEMENT_SET_NO":999,"REV_AT_EPOCH":5662,"BSTAR":0.00040582804,"MEAN_MOTION_DOT":9.111e-5,"MEAN_MOTION_DDOT":0},{"OBJECT_NAME":"KUIPER-00055","OBJECT_ID":"2025-134R","EPOCH":"2026-03-09T21:39:01.043424","MEAN_MOTION":15.20562207,"ECCENTRICITY":0.00015256,"INCLINATION":51.8904,"RA_OF_ASC_NODE":178.7702,"ARG_OF_PERICENTER":14.9809,"MEAN_ANOMALY":345.1216,"EPHEMERIS_TYPE":0,"CLASSIFICATION_TYPE":"U","NORAD_CAT_ID":64515,"ELEMENT_SET_NO":999,"REV_AT_EPOCH":4085,"BSTAR":0.00087666982,"MEAN_MOTION_DOT":0.00019176,"MEAN_MOTION_DDOT":0}]
